OBJECT_NAME,OBJECT_ID,EPOCH,MEAN_MOTION,ECCENTRICITY,INCLINATION,RA_OF_ASC_NODE,ARG_OF_PERICENTER,MEAN_ANOMALY,EPHEMERIS_TYPE,CLASSIFICATION_TYPE,NORAD_CAT_ID,ELEMENT_SET_NO,REV_AT_EPOCH,BSTAR,MEAN_MOTION_DOT,MEAN_MOTION_DDOT
CUBEBUG-2 (LO-74),2013-066AA,2026-06-17T09:33:17.239680,14.93763127,.00583777,97.8909,117.3771,28.4148,332.0233,0,U,39440,999,67702,.35341719E-3,.381E-4,0
FUNCUBE-1 (AO-73),2013-066AE,2026-06-17T10:54:09.970848,15.09493115,.00356534,97.8279,139.9057,199.8844,160.0997,0,U,39444,999,67970,.31860589E-3,.5112E-4,0
UWE-3,2013-066AG,2026-06-17T09:59:17.371392,14.97025793,.00475052,97.8697,124.4914,320.3944,39.3810,0,U,39446,999,67761,.29685775E-3,.3433E-4,0
UNISAT-6,2014-033C,2026-06-17T09:39:12.738528,14.88246960,.00462463,97.7880,321.1100,68.6169,291.9973,0,U,40012,999,64619,.20611546E-3,.1884E-4,0
DUCHIFAT-1,2014-033M,2026-06-17T02:03:16.411104,15.64575667,.00030173,98.0464,227.2320,117.8101,242.3462,0,U,40021,999,65573,.89449341E-3,.86906E-3,0
QB50P1,2014-033R,2026-06-17T13:05:32.140032,15.18264690,.00078228,98.0960,179.7168,213.7845,146.2890,0,U,40025,999,65308,.28772221E-3,.5822E-4,0
LILACSAT-2,2015-049K,2026-06-17T14:16:26.572800,15.51456279,.00055214,97.4639,205.4519,242.9611,117.1078,0,U,40908,999,59581,.2436518E-3,.14291E-3,0
FOX-1A (AO-85),2015-058D,2026-06-17T13:17:26.976480,14.90971096,.01304943,64.7761,277.8447,56.4400,304.9093,0,U,40967,999,11362,.17295613E-3,.1836E-4,0
CAS-2T & KS-1Q,2016-066G,2026-06-17T02:27:01.666368,14.44694196,.03427906,98.3822,243.8394,129.7362,233.4574,0,U,41847,999,50478,.21210821E-3,.1464E-4,0
RADFXSAT (FOX-1B),2017-073E,2026-06-17T14:31:00.659136,15.12722439,.01495384,97.4696,35.8108,327.7970,31.4193,0,U,43017,999,46545,.24962405E-3,.5679E-4,0
DIWATA-2B,2018-084H,2026-06-17T13:40:48.204768,15.00453171,.00124876,98.1177,4.7946,168.8942,191.2559,0,U,43678,999,41627,.15046693E-3,.183E-4,0
ES'HAIL 2,2018-090A,2026-06-16T18:16:15.450816,1.00270422,.00016087,0.0175,13.0563,111.1044,80.7103,0,U,43700,999,2767,0,.141E-5,0
FOX-1CLIFF (AO-95),2018-099N,2026-06-17T09:43:46.294752,15.26715554,.00079519,97.4379,228.6506,357.1065,3.0126,0,U,43770,999,41325,.33623107E-3,.877E-4,0
ITASAT,2018-099AE,2026-06-17T02:06:03.946752,15.19055872,.00121007,97.4026,219.6012,0.6685,359.4564,0,U,43786,999,41289,.26430944E-3,.5482E-4,0
JY1SAT (JO-97),2018-099AX,2026-06-17T03:51:50.109696,15.33652151,.00043325,97.4126,230.9950,262.3288,97.7462,0,U,43803,999,41362,.39004137E-3,.12621E-3,0
UWE-4,2018-111E,2026-06-17T08:16:10.276896,15.46133218,.00054482,97.5856,96.7426,341.8769,18.2285,0,U,43880,999,41080,.53313601E-3,.26096E-3,0
TIANYAN 01,2019-093C,2026-06-17T13:59:52.971936,14.86520760,.00151318,97.7537,240.8057,85.6415,274.6529,0,U,44881,999,35147,.66644786E-4,.537E-5,0
RS-44 & BREEZE-KM R/B,2019-096E,2026-06-17T13:15:32.880096,12.79748854,.02181838,82.5218,339.4621,143.3147,218.3120,0,U,44909,999,30239,.737557E-6,.13E-6,0
SALSAT,2020-068K,2026-06-17T12:54:41.050368,15.29803905,.00080404,97.8847,171.6239,306.6544,53.3955,0,U,46495,999,31541,.21820696E-3,.6219E-4,0
XW-3 (CAS-9),2021-131B,2026-06-17T14:38:20.951808,14.41357924,.00054092,98.4989,260.9973,95.9020,264.2786,0,U,50466,999,23517,.12758375E-3,.369E-5,0
GREENCUBE (IO-117),2022-080E,2026-06-13T07:02:28.697280,6.42583230,.00089108,70.1444,299.5995,290.4576,69.5127,0,U,53109,999,9181,0,-.3E-7,0
UMKA 1 (RS40S),2023-091G,2026-06-17T13:18:28.047456,15.20822088,.00142449,97.5048,227.2503,116.5284,243.7414,0,U,57172,999,16406,.21956173E-3,.4785E-4,0
CUBESX-HSE 3 (RS42S),2023-091N,2026-06-17T13:34:57.221184,15.31223482,.00120322,97.5089,234.1579,93.6427,266.6190,0,U,57178,999,16448,.3529968E-3,.10593E-3,0
MONITOR-3 (RS58S),2023-091Q,2026-06-17T14:11:25.303776,15.27848846,.00131026,97.5080,232.0402,99.5742,260.6978,0,U,57180,999,16435,.32860379E-3,.8883E-4,0
MONITOR-4 (RS57S),2023-091S,2026-06-17T13:41:13.884576,15.27934246,.00130932,97.5074,231.9905,100.0034,260.2683,0,U,57182,999,16435,.32049941E-3,.8684E-4,0
MONITOR-2 (RS39S),2023-091U,2026-06-17T13:49:44.196672,15.18913614,.00127558,97.5070,226.8566,109.8954,250.3656,0,U,57184,999,16401,.20705739E-3,.4261E-4,0
SVYATOBOR 1 (RS60S),2023-091X,2026-06-17T12:26:10.272480,15.26620149,.00108693,97.5087,232.3369,93.4386,266.8096,0,U,57187,999,16436,.28627212E-3,.7438E-4,0
VIZARD-METEO (RS38S),2023-091Z,2026-06-17T14:29:13.830720,15.36037975,.00082344,97.5090,238.0972,76.3939,283.8221,0,U,57189,999,16475,.40679662E-3,.14218E-3,0
POLYTECH-UNIVERSE 3 (RS46S),2023-091AB,2026-06-17T14:28:49.906560,15.19116511,.00168872,97.5045,226.3880,125.4239,234.8576,0,U,57191,999,16401,.18923461E-3,.3917E-4,0
UTMN 2 (RS27S),2023-091AP,2026-06-17T13:59:58.852320,15.32060607,.00092401,97.5085,235.8097,82.6541,277.5750,0,U,57203,999,16460,.34354677E-3,.10571E-3,0
