CUBEBUG-2 (LO-74)       
1 39440U 13066AA  26168.39811620  .00003810  00000+0  35342-3 0  9990
2 39440  97.8909 117.3771 0058377  28.4148 332.0233 14.93763127677029
FUNCUBE-1 (AO-73)       
1 39444U 13066AE  26168.45428207  .00005112  00000+0  31861-3 0  9995
2 39444  97.8279 139.9057 0035653 199.8844 160.0997 15.09493115679706
UWE-3                   
1 39446U 13066AG  26168.41617328  .00003433  00000+0  29686-3 0  9993
2 39446  97.8697 124.4914 0047505 320.3944  39.3810 14.97025793677613
UNISAT-6                
1 40012U 14033C   26168.40223077  .00001884  00000+0  20612-3 0  9990
2 40012  97.7880 321.1100 0046246  68.6169 291.9973 14.88246960646198
DUCHIFAT-1              
1 40021U 14033M   26168.08560661  .00086906  00000+0  89449-3 0  9998
2 40021  98.0464 227.2320 0003017 117.8101 242.3462 15.64575667655739
QB50P1                  
1 40025U 14033R   26168.54551088  .00005822  00000+0  28772-3 0  9996
2 40025  98.0960 179.7168 0007822 213.7845 146.2890 15.18264690653087
LILACSAT-2              
1 40908U 15049K   26168.59475200  .00014291  00000+0  24365-3 0  9994
2 40908  97.4639 205.4519 0005521 242.9611 117.1078 15.51456279595813
FOX-1A (AO-85)          
1 40967U 15058D   26168.55378445  .00001836  00000+0  17296-3 0  9994
2 40967  64.7761 277.8447 0130494  56.4400 304.9093 14.90971096113625
CAS-2T & KS-1Q          
1 41847U 16066G   26168.10210262  .00001464  00000+0  21211-3 0  9994
2 41847  98.3822 243.8394 0342790 129.7362 233.4574 14.44694196504786
RADFXSAT (FOX-1B)       
1 43017U 17073E   26168.60486874  .00005679  00000+0  24962-3 0  9991
2 43017  97.4696  35.8108 0149538 327.7970  31.4193 15.12722439465459
DIWATA-2B               
1 43678U 18084H   26168.57000237  .00001830  00000+0  15047-3 0  9997
2 43678  98.1177   4.7946 0012487 168.8942 191.2559 15.00453171416272
ES'HAIL 2               
1 43700U 18090A   26167.76128994  .00000141  00000+0  00000+0 0  9994
2 43700   0.0175  13.0563 0001608 111.1044  80.7103  1.00270422 27673
FOX-1CLIFF (AO-95)      
1 43770U 18099N   26168.40539693  .00008770  00000+0  33623-3 0  9991
2 43770  97.4379 228.6506 0007951 357.1065   3.0126 15.26715554413258
ITASAT                  
1 43786U 18099AE  26168.08754568  .00005482  00000+0  26431-3 0  9998
2 43786  97.4026 219.6012 0012100   0.6685 359.4564 15.19055872412891
JY1SAT (JO-97)          
1 43803U 18099AX  26168.16099664  .00012621  00000+0  39004-3 0  9999
2 43803  97.4126 230.9950 0004332 262.3288  97.7462 15.33652151413623
UWE-4                   
1 43880U 18111E   26168.34456339  .00026096  00000+0  53314-3 0  9996
2 43880  97.5856  96.7426 0005448 341.8769  18.2285 15.46133218410801
TIANYAN 01              
1 44881U 19093C   26168.58325199  .00000537  00000+0  66645-4 0  9997
2 44881  97.7537 240.8057 0015131  85.6415 274.6529 14.86520760351475
RS-44 & BREEZE-KM R/B   
1 44909U 19096E   26168.55246389  .00000013  00000+0  73756-6 0  9993
2 44909  82.5218 339.4621 0218183 143.3147 218.3120 12.79748854302397
SALSAT                  
1 46495U 20068K   26168.53797512  .00006219  00000+0  21821-3 0  9990
2 46495  97.8847 171.6239 0008040 306.6544  53.3955 15.29803905315418
XW-3 (CAS-9)            
1 50466U 21131B   26168.60996472  .00000369  00000+0  12758-3 0  9998
2 50466  98.4989 260.9973 0005409  95.9020 264.2786 14.41357924235172
GREENCUBE (IO-117)      
1 53109U 22080E   26164.29338770 -.00000003  00000+0  00000+0 0  9990
2 53109  70.1444 299.5995 0008910 290.4576  69.5127  6.42583230 91811
UMKA 1 (RS40S)          
1 57172U 23091G   26168.55449129  .00004785  00000+0  21956-3 0  9998
2 57172  97.5048 227.2503 0014244 116.5284 243.7414 15.20822088164068
CUBESX-HSE 3 (RS42S)    
1 57178U 23091N   26168.56594006  .00010593  00000+0  35300-3 0  9992
2 57178  97.5089 234.1579 0012032  93.6427 266.6190 15.31223482164482
MONITOR-3 (RS58S)       
1 57180U 23091Q   26168.59126509  .00008883  00000+0  32860-3 0  9994
2 57180  97.5080 232.0402 0013102  99.5742 260.6978 15.27848846164358
MONITOR-4 (RS57S)       
1 57182U 23091S   26168.57029959  .00008684  00000+0  32050-3 0  9995
2 57182  97.5074 231.9905 0013093 100.0034 260.2683 15.27934246164359
MONITOR-2 (RS39S)       
1 57184U 23091U   26168.57620598  .00004261  00000+0  20706-3 0  9995
2 57184  97.5070 226.8566 0012755 109.8954 250.3656 15.18913614164014
SVYATOBOR 1 (RS60S)     
1 57187U 23091X   26168.51817445  .00007438  00000+0  28627-3 0  9990
2 57187  97.5087 232.3369 0010869  93.4386 266.8096 15.26620149164364
VIZARD-METEO (RS38S)    
1 57189U 23091Z   26168.60363230  .00014218  00000+0  40680-3 0  9997
2 57189  97.5090 238.0972 0008234  76.3939 283.8221 15.36037975164752
POLYTECH-UNIVERSE 3 (R*)
1 57191U 23091AB  26168.60335540  .00003917  00000+0  18923-3 0  9992
2 57191  97.5045 226.3880 0016887 125.4239 234.8576 15.19116511164018
UTMN 2 (RS27S)          
1 57203U 23091AP  26168.58332005  .00010571  00000+0  34355-3 0  9997
2 57203  97.5085 235.8097 0009240  82.6541 277.5750 15.32060607164608
